{"type": "FeatureCollection", "features": [ {"type": "Feature", "properties": {"norad_id": 34547, "name": "COSMOS 2251 DEB", "group": "cosmos-2251-debris", "lat": -45.90229396669768, "lon": -76.11647084770641, "alt_km": 654.1727723233071, "timestamp": "2025-12-19T22:41:52.790481+00:00", "meta": {"OBJECT_NAME": "COSMOS 2251 DEB", "OBJECT_ID": "1993-036UH", "EPOCH": "2025-12-18T22:50:15.370656", "MEAN_MOTION": 14.72476564, "ECCENTRICITY": 0.00166938, "INCLINATION": 74.0316, "RA_OF_ASC_NODE": 88.6306, "ARG_OF_PERICENTER": 167.5365, "MEAN_ANOMALY": 192.6223, "EPHEMERIS_TYPE": 0, "CLASSIFICATION_TYPE": "U", "NORAD_CAT_ID": 34547, "ELEMENT_SET_NO": 999, "REV_AT_EPOCH": 88613, "BSTAR": 0.0013141249, "MEAN_MOTION_DOT": 8.336e-05, "MEAN_MOTION_DDOT": 0}, "tle": {"line1": "1 34547U 93036UH  25352.95156679  .00008336  00000+0  13141-2 0  9990", "line2": "2 34547  74.0316  88.6306 0016693 167.5365 192.6223 14.72476564886132"}}, "geometry": {"type": "Point", "coordinates": [-76.11647084770641, -45.90229396669768]}}, {"type": "Feature", "properties": {"norad_id": 34553, "name": "COSMOS 2251 DEB", "group": "cosmos-2251-debris", "lat": 68.72640526019488, "lon": -49.193148010929136, "alt_km": 705.1092212711974, "timestamp": "2025-12-19T22:41:52.790493+00:00", "meta": {"OBJECT_NAME": "COSMOS 2251 DEB", "OBJECT_ID": "1993-036UP", "EPOCH": "2025-12-19T07:38:57.477984", "MEAN_MOTION": 14.57779976, "ECCENTRICITY": 0.0019139, "INCLINATION": 74.0238, "RA_OF_ASC_NODE": 179.3741, "ARG_OF_PERICENTER": 256.193, "MEAN_ANOMALY": 158.8027, "EPHEMERIS_TYPE": 0, "CLASSIFICATION_TYPE": "U", "NORAD_CAT_ID": 34553, "ELEMENT_SET_NO": 999, "REV_AT_EPOCH": 88192, "BSTAR": 0.00076906, "MEAN_MOTION_DOT": 3.497e-05, "MEAN_MOTION_DDOT": 0}, "tle": {"line1": "1 34553U 93036UP  25353.31872081  .00003497  00000+0  76906-3 0  9992", "line2": "2 34553  74.0238 179.3741 0019139 256.1930 158.8027 14.57779976881928"}}, "geometry": {"type": "Point", "coordinates": [-49.193148010929136, 68.72640526019488]}}, {"type": "Feature", "properties": {"norad_id": 34554, "name": "COSMOS 2251 DEB", "group": "cosmos-2251-debris", "lat": 53.708641648265385, "lon": -51.33867907298947, "alt_km": 754.2723992532028, "timestamp": "2025-12-19T22:41:52.790503+00:00", "meta": {"OBJECT_NAME": "COSMOS 2251 DEB", "OBJECT_ID": "1993-036UQ", "EPOCH": "2025-12-18T13:50:31.745184", "MEAN_MOTION": 14.37950273, "ECCENTRICITY": 0.00232506, "INCLINATION": 74.0391, "RA_OF_ASC_NODE": 288.2435, "ARG_OF_PERICENTER": 349.3985, "MEAN_ANOMALY": 183.4669, "EPHEMERIS_TYPE": 0, "CLASSIFICATION_TYPE": "U", "NORAD_CAT_ID": 34554, "ELEMENT_SET_NO": 999, "REV_AT_EPOCH": 87839, "BSTAR": 0.00025927252, "MEAN_MOTION_DOT": 7.59e-06, "MEAN_MOTION_DDOT": 0}, "tle": {"line1": "1 34554U 93036UQ  25352.57675631  .00000759  00000+0  25927-3 0  9997", "line2": "2 34554  74.0391 288.2435 0023250 349.3985 183.4669 14.37950273878395"}}, "geometry": {"type": "Point", "coordinates": [-51.33867907298947, 53.708641648265385]}}, {"type": "Feature", "properties": {"norad_id": 34556, "name": "COSMOS 2251 DEB", "group": "cosmos-2251-debris", "lat": 8.250530291219395, "lon": -71.69076258637011, "alt_km": 632.2582101264825, "timestamp": "2025-12-19T22:41:52.790513+00:00", "meta": {"OBJECT_NAME": "COSMOS 2251 DEB", "OBJECT_ID": "1993-036US", "EPOCH": "2025-12-19T10:53:06.238752", "MEAN_MOTION": 14.77997047, "ECCENTRICITY": 0.0006967, "INCLINATION": 74.016, "RA_OF_ASC_NODE": 111.6585, "ARG_OF_PERICENTER": 172.0151, "MEAN_ANOMALY": 261.4473, "EPHEMERIS_TYPE": 0, "CLASSIFICATION_TYPE": "U", "NORAD_CAT_ID": 34556, "ELEMENT_SET_NO": 999, "REV_AT_EPOCH": 88428, "BSTAR": 0.0013856, "MEAN_MOTION_DOT": 9.984e-05, "MEAN_MOTION_DDOT": 0}, "tle": {"line1": "1 34556U 93036US  25353.45354443  .00009984  00000+0  13856-2 0  9998", "line2": "2 34556  74.0160 111.6585 0006967 172.0151 261.4473 14.77997047884287"}}, "geometry": {"type": "Point", "coordinates": [-71.69076258637011, 8.250530291219395]}}, {"type": "Feature", "properties": {"norad_id": 34560, "name": "COSMOS 2251 DEB", "group": "cosmos-2251-debris", "lat": -72.35938968090838, "lon": 63.76159582707709, "alt_km": 656.7981753132517, "timestamp": "2025-12-19T22:41:52.790524+00:00", "meta": {"OBJECT_NAME": "COSMOS 2251 DEB", "OBJECT_ID": "1993-036UW", "EPOCH": "2025-12-19T10:16:47.368128", "MEAN_MOTION": 14.72299965, "ECCENTRICITY": 0.0014177, "INCLINATION": 74.0166, "RA_OF_ASC_NODE": 129.1032, "ARG_OF_PERICENTER": 211.3583, "MEAN_ANOMALY": 204.6897, "EPHEMERIS_TYPE": 0, "CLASSIFICATION_TYPE": "U", "NORAD_CAT_ID": 34560, "ELEMENT_SET_NO": 999, "REV_AT_EPOCH": 88350, "BSTAR": 0.0014137, "MEAN_MOTION_DOT": 8.93e-05, "MEAN_MOTION_DDOT": 0}, "tle": {"line1": "1 34560U 93036UW  25353.42832602  .00008930  00000+0  14137-2 0  9991", "line2": "2 34560  74.0166 129.1032 0014177 211.3583 204.6897 14.72299965883509"}}, "geometry": {"type": "Point", "coordinates": [63.76159582707709, -72.35938968090838]}}, {"type": "Feature", "properties": {"norad_id": 34563, "name": "COSMOS 2251 DEB", "group": "cosmos-2251-debris", "lat": 72.94509155202059, "lon": -58.65580668027019, "alt_km": 739.446501626423, "timestamp": "2025-12-19T22:41:52.790534+00:00", "meta": {"OBJECT_NAME": "COSMOS 2251 DEB", "OBJECT_ID": "1993-036UZ", "EPOCH": "2025-12-19T06:12:30.254400", "MEAN_MOTION": 14.46528877, "ECCENTRICITY": 0.001389, "INCLINATION": 74.0371, "RA_OF_ASC_NODE": 191.5375, "ARG_OF_PERICENTER": 285.1714, "MEAN_ANOMALY": 194.4043, "EPHEMERIS_TYPE": 0, "CLASSIFICATION_TYPE": "U", "NORAD_CAT_ID": 34563, "ELEMENT_SET_NO": 999, "REV_AT_EPOCH": 88291, "BSTAR": 0.00030985, "MEAN_MOTION_DOT": 1.09e-05, "MEAN_MOTION_DDOT": 0}, "tle": {"line1": "1 34563U 93036UZ  25353.25868350  .00001090  00000+0  30985-3 0  9994", "line2": "2 34563  74.0371 191.5375 0013890 285.1714 194.4043 14.46528877882910"}}, "geometry": {"type": "Point", "coordinates": [-58.65580668027019, 72.94509155202059]}}, {"type": "Feature", "properties": {"norad_id": 34564, "name": "COSMOS 2251 DEB", "group": "cosmos-2251-debris", "lat": 73.0018103825094, "lon": -65.82314879844876, "alt_km": 754.9682212997905, "timestamp": "2025-12-19T22:41:52.790544+00:00", "meta": {"OBJECT_NAME": "COSMOS 2251 DEB", "OBJECT_ID": "1993-036VA", "EPOCH": "2025-12-19T01:11:56.569056", "MEAN_MOTION": 14.4070084, "ECCENTRICITY": 0.00192521, "INCLINATION": 74.0318, "RA_OF_ASC_NODE": 226.3371, "ARG_OF_PERICENTER": 329.3416, "MEAN_ANOMALY": 150.4354, "EPHEMERIS_TYPE": 0, "CLASSIFICATION_TYPE": "U", "NORAD_CAT_ID": 34564, "ELEMENT_SET_NO": 999, "REV_AT_EPOCH": 88097, "BSTAR": 0.00019435218, "MEAN_MOTION_DOT": 5.96e-06, "MEAN_MOTION_DDOT": 0}, "tle": {"line1": "1 34564U 93036VA  25353.04996029  .00000596  00000+0  19435-3 0  9994", "line2": "2 34564  74.0318 226.3371 0019252 329.3416 150.4354 14.40700840880970"}}, "geometry": {"type": "Point", "coordinates": [-65.82314879844876, 73.0018103825094]}}, {"type": "Feature", "properties": {"norad_id": 34567, "name": "COSMOS 2251 DEB", "group": "cosmos-2251-debris", "lat": 54.061817756662755, "lon": 167.06217268505063, "alt_km": 856.1597215804486, "timestamp": "2025-12-19T22:41:52.790555+00:00", "meta": {"OBJECT_NAME": "COSMOS 2251 DEB", "OBJECT_ID": "1993-036VD", "EPOCH": "2025-12-19T12:36:35.582976", "MEAN_MOTION": 14.24023589, "ECCENTRICITY": 0.0074268, "INCLINATION": 74.0406, "RA_OF_ASC_NODE": 144.5673, "ARG_OF_PERICENTER": 217.3992, "MEAN_ANOMALY": 206.3304, "EPHEMERIS_TYPE": 0, "CLASSIFICATION_TYPE": "U", "NORAD_CAT_ID": 34567, "ELEMENT_SET_NO": 999, "REV_AT_EPOCH": 87221, "BSTAR": 0.00017384, "MEAN_MOTION_DOT": 3.85e-06, "MEAN_MOTION_DDOT": 0}, "tle": {"line1": "1 34567U 93036VD  25353.52541184  .00000385  00000+0  17384-3 0  9995", "line2": "2 34567  74.0406 144.5673 0074268 217.3992 206.3304 14.24023589872214"}}, "geometry": {"type": "Point", "coordinates": [167.06217268505063, 54.061817756662755]}}, {"type": "Feature", "properties": {"norad_id": 34569, "name": "COSMOS 2251 DEB", "group": "cosmos-2251-debris", "lat": -57.99427831467579, "lon": 32.45522303764982, "alt_km": 887.7499461704874, "timestamp": "2025-12-19T22:41:52.790565+00:00", "meta": {"OBJECT_NAME": "COSMOS 2251 DEB", "OBJECT_ID": "1993-036VF", "EPOCH": "2025-12-19T00:14:44.283264", "MEAN_MOTION": 14.24767816, "ECCENTRICITY": 0.01575762, "INCLINATION": 73.9892, "RA_OF_ASC_NODE": 186.7976, "ARG_OF_PERICENTER": 13.7528, "MEAN_ANOMALY": 112.9889, "EPHEMERIS_TYPE": 0, "CLASSIFICATION_TYPE": "U", "NORAD_CAT_ID": 34569, "ELEMENT_SET_NO": 999, "REV_AT_EPOCH": 87057, "BSTAR": 0.00035668833, "MEAN_MOTION_DOT": 9.19e-06, "MEAN_MOTION_DDOT": 0}, "tle": {"line1": "1 34569U 93036VF  25353.01023476  .00000919  00000+0  35669-3 0  9999", "line2": "2 34569  73.9892 186.7976 0157576  13.7528 112.9889 14.24767816870579"}}, "geometry": {"type": "Point", "coordinates": [32.45522303764982, -57.99427831467579]}}, {"type": "Feature", "properties": {"norad_id": 34570, "name": "COSMOS 2251 DEB", "group": "cosmos-2251-debris", "lat": -63.23442584473295, "lon": 60.53607089533833, "alt_km": 1032.2552060016233, "timestamp": "2025-12-19T22:41:52.790575+00:00", "meta": {"OBJECT_NAME": "COSMOS 2251 DEB", "OBJECT_ID": "1993-036VG", "EPOCH": "2025-12-17T14:47:22.949376", "MEAN_MOTION": 13.99827814, "ECCENTRICITY": 0.01902686, "INCLINATION": 73.9566, "RA_OF_ASC_NODE": 209.802, "ARG_OF_PERICENTER": 91.1991, "MEAN_ANOMALY": 301.5791, "EPHEMERIS_TYPE": 0, "CLASSIFICATION_TYPE": "U", "NORAD_CAT_ID": 34570, "ELEMENT_SET_NO": 999, "REV_AT_EPOCH": 85669, "BSTAR": 0.00040162603, "MEAN_MOTION_DOT": 6.66e-06, "MEAN_MOTION_DDOT": 0}, "tle": {"line1": "1 34570U 93036VG  25351.61623784  .00000666  00000+0  40163-3 0  9997", "line2": "2 34570  73.9566 209.8020 0190268  91.1991 301.5791 13.99827814856696"}}, "geometry": {"type": "Point", "coordinates": [60.53607089533833, -63.23442584473295]}}]}